[{"OBJECT_NAME":"STARLINK-5317","OBJECT_ID":"2023-010Q","EPOCH":"2026-03-09T22:25:22.359648","MEAN_MOTION":14.98332531,"ECCENTRICITY":0.00032076,"INCLINATION":70.0002,"RA_OF_ASC_NODE":43.7962,"ARG_OF_PERICENTER":268.2571,"MEAN_ANOMALY":91.822,"EPHEMERIS_TYPE":0,"CLASSIFICATION_TYPE":"U","NORAD_CAT_ID":55283,"ELEMENT_SET_NO":999,"REV_AT_EPOCH":17281,"BSTAR":3.48302e-6,"MEAN_MOTION_DOT":-5.1e-7,"MEAN_MOTION_DDOT":0},{"OBJECT_NAME":"FENGYUN 1C DEB","OBJECT_ID":"1999-025BRA","EPOCH":"2026-03-07T21:38:03.570144","MEAN_MOTION":15.14550758,"ECCENTRICITY":0.01045185,"INCLINATION":98.8762,"RA_OF_ASC_NODE":52.6466,"ARG_OF_PERICENTER":91.2586,"MEAN_ANOMALY":270.0618,"EPHEMERIS_TYPE":0,"CLASSIFICATION_TYPE":"U","NORAD_CAT_ID":31346,"ELEMENT_SET_NO":999,"REV_AT_EPOCH":773,"BSTAR":0.0014203897,"MEAN_MOTION_DOT":0.00030047,"MEAN_MOTION_DDOT":0}]
